{"type": "FeatureCollection", "features": [ {"type": "Feature", "properties": {"norad_id": 41785, "name": "ALSAT 1B", "group": "resource", "lat": -80.32585846528349, "lon": 61.07576046454484, "alt_km": 668.9390699416545, "timestamp": "2025-12-22T08:58:20.000735+00:00", "meta": {"OBJECT_NAME": "ALSAT 1B", "OBJECT_ID": "2016-059C", "EPOCH": "2025-12-22T04:27:38.888064", "MEAN_MOTION": 14.720829, "ECCENTRICITY": 0.0010796, "INCLINATION": 97.7805, "RA_OF_ASC_NODE": 7.5678, "ARG_OF_PERICENTER": 76.8835, "MEAN_ANOMALY": 283.3577, "EPHEMERIS_TYPE": 0, "CLASSIFICATION_TYPE": "U", "NORAD_CAT_ID": 41785, "ELEMENT_SET_NO": 999, "REV_AT_EPOCH": 49453, "BSTAR": -5.5857e-06, "MEAN_MOTION_DOT": -8.2e-07, "MEAN_MOTION_DDOT": 0}, "tle": {"line1": "1 41785U 16059C   25356.18586676 -.00000082  00000+0 -55857-5 0  9990", "line2": "2 41785  97.7805   7.5678 0010796  76.8835 283.3577 14.72082900494539"}}, "geometry": {"type": "Point", "coordinates": [61.07576046454484, -80.32585846528349]}}, {"type": "Feature", "properties": {"norad_id": 41787, "name": "PATHFINDER 1", "group": "resource", "lat": -10.142944059012573, "lon": 177.29274721847807, "alt_km": 689.4611856062447, "timestamp": "2025-12-22T08:58:20.000746+00:00", "meta": {"OBJECT_NAME": "PATHFINDER 1", "OBJECT_ID": "2016-059E", "EPOCH": "2025-12-21T22:17:28.027968", "MEAN_MOTION": 14.67336641, "ECCENTRICITY": 0.0029774, "INCLINATION": 97.8136, "RA_OF_ASC_NODE": 358.276, "ARG_OF_PERICENTER": 53.198, "MEAN_ANOMALY": 307.1951, "EPHEMERIS_TYPE": 0, "CLASSIFICATION_TYPE": "U", "NORAD_CAT_ID": 41787, "ELEMENT_SET_NO": 999, "REV_AT_EPOCH": 49371, "BSTAR": 0.0001383, "MEAN_MOTION_DOT": 7.39e-06, "MEAN_MOTION_DDOT": 0}, "tle": {"line1": "1 41787U 16059E   25355.92879662  .00000739  00000+0  13830-3 0  9993", "line2": "2 41787  97.8136 358.2760 0029774  53.1980 307.1951 14.67336641493710"}}, "geometry": {"type": "Point", "coordinates": [177.29274721847807, -10.142944059012573]}}, {"type": "Feature", "properties": {"norad_id": 41790, "name": "SCATSAT 1", "group": "resource", "lat": -45.30436110507936, "lon": -135.1587868995147, "alt_km": 663.6970059771393, "timestamp": "2025-12-22T08:58:20.000756+00:00", "meta": {"OBJECT_NAME": "SCATSAT 1", "OBJECT_ID": "2016-059H", "EPOCH": "2025-12-21T17:20:44.941632", "MEAN_MOTION": 14.7896339, "ECCENTRICITY": 0.0056471, "INCLINATION": 98.145, "RA_OF_ASC_NODE": 52.5048, "ARG_OF_PERICENTER": 99.6908, "MEAN_ANOMALY": 261.0688, "EPHEMERIS_TYPE": 0, "CLASSIFICATION_TYPE": "U", "NORAD_CAT_ID": 41790, "ELEMENT_SET_NO": 999, "REV_AT_EPOCH": 7535, "BSTAR": 0.00015689, "MEAN_MOTION_DOT": 1.132e-05, "MEAN_MOTION_DDOT": 0}, "tle": {"line1": "1 41790U 16059H   25355.72274238  .00001132  00000+0  15689-3 0  9995", "line2": "2 41790  98.1450  52.5048 0056471  99.6908 261.0688 14.78963390 75359"}}, "geometry": {"type": "Point", "coordinates": [-135.1587868995147, -45.30436110507936]}}, {"type": "Feature", "properties": {"norad_id": 41875, "name": "GOKTURK 1A", "group": "resource", "lat": 68.47561015430249, "lon": 89.89814685364067, "alt_km": 676.7089272987878, "timestamp": "2025-12-22T08:58:20.000766+00:00", "meta": {"OBJECT_NAME": "GOKTURK 1A", "OBJECT_ID": "2016-073A", "EPOCH": "2025-12-22T05:11:17.169216", "MEAN_MOTION": 14.62789966, "ECCENTRICITY": 0.0001302, "INCLINATION": 98.1433, "RA_OF_ASC_NODE": 248.4551, "ARG_OF_PERICENTER": 81.7948, "MEAN_ANOMALY": 278.3401, "EPHEMERIS_TYPE": 0, "CLASSIFICATION_TYPE": "U", "NORAD_CAT_ID": 41875, "ELEMENT_SET_NO": 999, "REV_AT_EPOCH": 48295, "BSTAR": 0.00011704, "MEAN_MOTION_DOT": 5.5e-06, "MEAN_MOTION_DDOT": 0}, "tle": {"line1": "1 41875U 16073A   25356.21617094  .00000550  00000+0  11704-3 0  9998", "line2": "2 41875  98.1433 248.4551 0001302  81.7948 278.3401 14.62789966482958"}}, "geometry": {"type": "Point", "coordinates": [89.89814685364067, 68.47561015430249]}}, {"type": "Feature", "properties": {"norad_id": 41877, "name": "RESOURCESAT-2A", "group": "resource", "lat": 6.8939681121261405, "lon": -112.75624420339597, "alt_km": 821.0524281576963, "timestamp": "2025-12-22T08:58:20.000776+00:00", "meta": {"OBJECT_NAME": "RESOURCESAT-2A", "OBJECT_ID": "2016-074A", "EPOCH": "2025-12-22T04:46:58.770048", "MEAN_MOTION": 14.21602545, "ECCENTRICITY": 0.0001501, "INCLINATION": 98.7749, "RA_OF_ASC_NODE": 66.0002, "ARG_OF_PERICENTER": 210.8293, "MEAN_ANOMALY": 149.2796, "EPHEMERIS_TYPE": 0, "CLASSIFICATION_TYPE": "U", "NORAD_CAT_ID": 41877, "ELEMENT_SET_NO": 999, "REV_AT_EPOCH": 46915, "BSTAR": -4.1784e-06, "MEAN_MOTION_DOT": -5.4e-07, "MEAN_MOTION_DDOT": 0}, "tle": {"line1": "1 41877U 16074A   25356.19929132 -.00000054  00000+0 -41784-5 0  9991", "line2": "2 41877  98.7749  66.0002 0001501 210.8293 149.2796 14.21602545469152"}}, "geometry": {"type": "Point", "coordinates": [-112.75624420339597, 6.8939681121261405]}}, {"type": "Feature", "properties": {"norad_id": 41948, "name": "CARTOSAT-2D", "group": "resource", "lat": -37.66107197802078, "lon": 59.51151094898839, "alt_km": 517.9246972857409, "timestamp": "2025-12-22T08:58:20.000787+00:00", "meta": {"OBJECT_NAME": "CARTOSAT-2D", "OBJECT_ID": "2017-008A", "EPOCH": "2025-12-22T04:23:51.232704", "MEAN_MOTION": 15.19343982, "ECCENTRICITY": 0.0005329, "INCLINATION": 97.4375, "RA_OF_ASC_NODE": 53.5372, "ARG_OF_PERICENTER": 135.2316, "MEAN_ANOMALY": 224.935, "EPHEMERIS_TYPE": 0, "CLASSIFICATION_TYPE": "U", "NORAD_CAT_ID": 41948, "ELEMENT_SET_NO": 999, "REV_AT_EPOCH": 49070, "BSTAR": 0.00022792, "MEAN_MOTION_DOT": 4.75e-05, "MEAN_MOTION_DDOT": 0}, "tle": {"line1": "1 41948U 17008A   25356.18323186  .00004750  00000+0  22792-3 0  9995", "line2": "2 41948  97.4375  53.5372 0005329 135.2316 224.9350 15.19343982490708"}}, "geometry": {"type": "Point", "coordinates": [59.51151094898839, -37.66107197802078]}}, {"type": "Feature", "properties": {"norad_id": 42063, "name": "SENTINEL-2B", "group": "resource", "lat": 76.47071689928273, "lon": -72.50197561111526, "alt_km": 780.9359840225852, "timestamp": "2025-12-22T08:58:20.000797+00:00", "meta": {"OBJECT_NAME": "SENTINEL-2B", "OBJECT_ID": "2017-013A", "EPOCH": "2025-12-22T03:28:09.874272", "MEAN_MOTION": 14.30813479, "ECCENTRICITY": 0.0001179, "INCLINATION": 98.5711, "RA_OF_ASC_NODE": 68.4586, "ARG_OF_PERICENTER": 93.243, "MEAN_ANOMALY": 266.8888, "EPHEMERIS_TYPE": 0, "CLASSIFICATION_TYPE": "U", "NORAD_CAT_ID": 42063, "ELEMENT_SET_NO": 999, "REV_AT_EPOCH": 45932, "BSTAR": -1.7702e-05, "MEAN_MOTION_DOT": -9e-07, "MEAN_MOTION_DDOT": 0}, "tle": {"line1": "1 42063U 17013A   25356.14455873 -.00000090  00000+0 -17702-4 0  9996", "line2": "2 42063  98.5711  68.4586 0001179  93.2430 266.8888 14.30813479459323"}}, "geometry": {"type": "Point", "coordinates": [-72.50197561111526, 76.47071689928273]}}, {"type": "Feature", "properties": {"norad_id": 42767, "name": "CARTOSAT-2E", "group": "resource", "lat": -50.329907337976586, "lon": -135.24880299349198, "alt_km": 513.5312027320579, "timestamp": "2025-12-22T08:58:20.000807+00:00", "meta": {"OBJECT_NAME": "CARTOSAT-2E", "OBJECT_ID": "2017-036C", "EPOCH": "2025-12-22T04:47:52.237824", "MEAN_MOTION": 15.19282149, "ECCENTRICITY": 0.0002687, "INCLINATION": 97.4543, "RA_OF_ASC_NODE": 53.6632, "ARG_OF_PERICENTER": 192.1007, "MEAN_ANOMALY": 168.0163, "EPHEMERIS_TYPE": 0, "CLASSIFICATION_TYPE": "U", "NORAD_CAT_ID": 42767, "ELEMENT_SET_NO": 999, "REV_AT_EPOCH": 47127, "BSTAR": 0.00015107, "MEAN_MOTION_DOT": 3.119e-05, "MEAN_MOTION_DDOT": 0}, "tle": {"line1": "1 42767U 17036C   25356.19991016  .00003119  00000+0  15107-3 0  9990", "line2": "2 42767  97.4543  53.6632 0002687 192.1007 168.0163 15.19282149471276"}}, "geometry": {"type": "Point", "coordinates": [-135.24880299349198, -50.329907337976586]}}, {"type": "Feature", "properties": {"norad_id": 42920, "name": "FORMOSAT-5", "group": "resource", "lat": 74.1404067465062, "lon": 39.81314870558689, "alt_km": 722.8745400311591, "timestamp": "2025-12-22T08:58:20.000836+00:00", "meta": {"OBJECT_NAME": "FORMOSAT-5", "OBJECT_ID": "2017-049A", "EPOCH": "2025-12-22T03:39:18.413280", "MEAN_MOTION": 14.50765697, "ECCENTRICITY": 0.0009823, "INCLINATION": 98.2441, "RA_OF_ASC_NODE": 70.2821, "ARG_OF_PERICENTER": 269.4118, "MEAN_ANOMALY": 90.5951, "EPHEMERIS_TYPE": 0, "CLASSIFICATION_TYPE": "U", "NORAD_CAT_ID": 42920, "ELEMENT_SET_NO": 999, "REV_AT_EPOCH": 44100, "BSTAR": 5.9687e-05, "MEAN_MOTION_DOT": 1.91e-06, "MEAN_MOTION_DDOT": 0}, "tle": {"line1": "1 42920U 17049A   25356.15229645  .00000191  00000+0  59687-4 0  9992", "line2": "2 42920  98.2441  70.2821 0009823 269.4118  90.5951 14.50765697441008"}}, "geometry": {"type": "Point", "coordinates": [39.81314870558689, 74.1404067465062]}}, {"type": "Feature", "properties": {"norad_id": 42969, "name": "SENTINEL-5P", "group": "resource", "lat": 70.94191326173174, "lon": 141.44766636324695, "alt_km": 819.3839288286899, "timestamp": "2025-12-22T08:58:20.000849+00:00", "meta": {"OBJECT_NAME": "SENTINEL-5P", "OBJECT_ID": "2017-064A", "EPOCH": "2025-12-22T01:42:13.082400", "MEAN_MOTION": 14.1951969, "ECCENTRICITY": 0.0001025, "INCLINATION": 98.7799, "RA_OF_ASC_NODE": 294.5728, "ARG_OF_PERICENTER": 91.1489, "MEAN_ANOMALY": 268.9804, "EPHEMERIS_TYPE": 0, "CLASSIFICATION_TYPE": "U", "NORAD_CAT_ID": 42969, "ELEMENT_SET_NO": 999, "REV_AT_EPOCH": 42443, "BSTAR": 5.401e-05, "MEAN_MOTION_DOT": 7e-07, "MEAN_MOTION_DDOT": 0}, "tle": {"line1": "1 42969U 17064A   25356.07098475  .00000070  00000+0  54010-4 0  9999", "line2": "2 42969  98.7799 294.5728 0001025  91.1489 268.9804 14.19519690424437"}}, "geometry": {"type": "Point", "coordinates": [141.44766636324695, 70.94191326173174]}}]}